STARLINK-35454          
1 66236U 25245C   25314.91667824 -.01153032  00000+0 -64445-2 0  9990
2 66236  53.1526 121.7864 0000935  52.6713 357.6524 15.81180973  2835
STARLINK-35557          
1 66237U 25245D   25314.91667824 -.01162933  00000+0 -65171-2 0  9998
2 66237  53.1526 121.7808 0000903  51.8184   1.1214 15.81146361  2999
STARLINK-35556          
1 66238U 25245E   25314.91667824 -.01168179  00000+0 -65546-2 0  9993
2 66238  53.1527 121.7760 0001026  53.0012   2.2688 15.81130316  2999
STARLINK-35554          
1 66239U 25245F   25314.91667824 -.01176501  00000+0 -66206-2 0  9996
2 66239  53.1526 121.7703 0000911  53.0219   4.9702 15.81087349  2833
STARLINK-35546          
1 66240U 25245G   25314.91667824 -.01204003  00000+0 -67989-2 0  9996
2 66240  53.1523 121.7646 0001001  52.3612   8.0746 15.81073382  2990
STARLINK-35497          
1 66241U 25245H   25314.91667824 -.01232836  00000+0 -69870-2 0  9993
2 66241  53.1524 121.7597 0001070  58.5975   4.2710 15.81059476  2945
STARLINK-35480          
1 66242U 25245J   25314.91667824 -.01296601  00000+0 -74352-2 0  9995
2 66242  53.1525 121.7446 0001136  54.7268  15.7592 15.80952001  2991
STARLINK-35495          
1 66243U 25245K   25314.91667824 -.01265897  00000+0 -72125-2 0  9995
2 66243  53.1525 121.7549 0000895  56.1740   9.3684 15.81022851  2991
STARLINK-35517          
1 66244U 25245L   25314.91667824 -.01286716  00000+0 -73508-2 0  9995
2 66244  53.1522 121.7492 0000852  59.4381   8.3477 15.81013238  2781
STARLINK-35503          
1 66245U 25245M   25314.91667824 -.01303855  00000+0 -74916-2 0  9994
2 66245  53.1522 121.7387 0001006  44.5538  28.1970 15.80927662  2946
STARLINK-35434          
1 66246U 25245N   25314.91667824 -.01311695  00000+0 -75522-2 0  9990
2 66246  53.1522 121.7339 0000937  52.3862  22.6565 15.80902523  2783
STARLINK-35481          
1 66247U 25245P   25314.91667824 -.01320019  00000+0 -76309-2 0  9995
2 66247  53.1521 121.7284 0000949  62.6897  15.0415 15.80835070  2992
