CCSDS_OMM_VERS = 2.0
CREATION_DATE  = 
ORIGINATOR     = 

OBJECT_NAME    = STARLINK-35454
OBJECT_ID      = 2025-245C
CENTER_NAME    = EARTH
REF_FRAME      = TEME
TIME_SYSTEM    = UTC
MEAN_ELEMENT_THEORY = SGP/SGP4

EPOCH          = 2025-11-10T22:00:00.999936
MEAN_MOTION    = 15.81180973
ECCENTRICITY   = .0000935
INCLINATION    = 53.1526
RA_OF_ASC_NODE = 121.7864
ARG_OF_PERICENTER = 52.6713
MEAN_ANOMALY   = 357.6524

EPHEMERIS_TYPE = 0
CLASSIFICATION_TYPE = U
NORAD_CAT_ID   = 66236
ELEMENT_SET_NO = 999
REV_AT_EPOCH   = 283
BSTAR          = -.64444525E-2
MEAN_MOTION_DOT = -.1153032E-1
MEAN_MOTION_DDOT = 0

CCSDS_OMM_VERS = 2.0
CREATION_DATE  = 
ORIGINATOR     = 

OBJECT_NAME    = STARLINK-35557
OBJECT_ID      = 2025-245D
CENTER_NAME    = EARTH
REF_FRAME      = TEME
TIME_SYSTEM    = UTC
MEAN_ELEMENT_THEORY = SGP/SGP4

EPOCH          = 2025-11-10T22:00:00.999936
MEAN_MOTION    = 15.81146361
ECCENTRICITY   = .00009038
INCLINATION    = 53.1526
RA_OF_ASC_NODE = 121.7808
ARG_OF_PERICENTER = 51.8184
MEAN_ANOMALY   = 1.1214

EPHEMERIS_TYPE = 0
CLASSIFICATION_TYPE = U
NORAD_CAT_ID   = 66237
ELEMENT_SET_NO = 999
REV_AT_EPOCH   = 299
BSTAR          = -.6517062E-2
MEAN_MOTION_DOT = -.1162933E-1
MEAN_MOTION_DDOT = 0

CCSDS_OMM_VERS = 2.0
CREATION_DATE  = 
ORIGINATOR     = 

OBJECT_NAME    = STARLINK-35556
OBJECT_ID      = 2025-245E
CENTER_NAME    = EARTH
REF_FRAME      = TEME
TIME_SYSTEM    = UTC
MEAN_ELEMENT_THEORY = SGP/SGP4

EPOCH          = 2025-11-10T22:00:00.999936
MEAN_MOTION    = 15.81130316
ECCENTRICITY   = .0001026
INCLINATION    = 53.1527
RA_OF_ASC_NODE = 121.7760
ARG_OF_PERICENTER = 53.0012
MEAN_ANOMALY   = 2.2688

EPHEMERIS_TYPE = 0
CLASSIFICATION_TYPE = U
NORAD_CAT_ID   = 66238
ELEMENT_SET_NO = 999
REV_AT_EPOCH   = 299
BSTAR          = -.65545552E-2
MEAN_MOTION_DOT = -.1168179E-1
MEAN_MOTION_DDOT = 0

CCSDS_OMM_VERS = 2.0
CREATION_DATE  = 
ORIGINATOR     = 

OBJECT_NAME    = STARLINK-35554
OBJECT_ID      = 2025-245F
CENTER_NAME    = EARTH
REF_FRAME      = TEME
TIME_SYSTEM    = UTC
MEAN_ELEMENT_THEORY = SGP/SGP4

EPOCH          = 2025-11-10T22:00:00.999936
MEAN_MOTION    = 15.81087349
ECCENTRICITY   = .00009117
INCLINATION    = 53.1526
RA_OF_ASC_NODE = 121.7703
ARG_OF_PERICENTER = 53.0219
MEAN_ANOMALY   = 4.9702

EPHEMERIS_TYPE = 0
CLASSIFICATION_TYPE = U
NORAD_CAT_ID   = 66239
ELEMENT_SET_NO = 999
REV_AT_EPOCH   = 283
BSTAR          = -.66205688E-2
MEAN_MOTION_DOT = -.1176501E-1
MEAN_MOTION_DDOT = 0

CCSDS_OMM_VERS = 2.0
CREATION_DATE  = 
ORIGINATOR     = 

OBJECT_NAME    = STARLINK-35546
OBJECT_ID      = 2025-245G
CENTER_NAME    = EARTH
REF_FRAME      = TEME
TIME_SYSTEM    = UTC
MEAN_ELEMENT_THEORY = SGP/SGP4

EPOCH          = 2025-11-10T22:00:00.999936
MEAN_MOTION    = 15.81073382
ECCENTRICITY   = .00010018
INCLINATION    = 53.1523
RA_OF_ASC_NODE = 121.7646
ARG_OF_PERICENTER = 52.3612
MEAN_ANOMALY   = 8.0746

EPHEMERIS_TYPE = 0
CLASSIFICATION_TYPE = U
NORAD_CAT_ID   = 66240
ELEMENT_SET_NO = 999
REV_AT_EPOCH   = 299
BSTAR          = -.6798881E-2
MEAN_MOTION_DOT = -.1204003E-1
MEAN_MOTION_DDOT = 0

CCSDS_OMM_VERS = 2.0
CREATION_DATE  = 
ORIGINATOR     = 

OBJECT_NAME    = STARLINK-35497
OBJECT_ID      = 2025-245H
CENTER_NAME    = EARTH
REF_FRAME      = TEME
TIME_SYSTEM    = UTC
MEAN_ELEMENT_THEORY = SGP/SGP4

EPOCH          = 2025-11-10T22:00:00.999936
MEAN_MOTION    = 15.81059476
ECCENTRICITY   = .00010709
INCLINATION    = 53.1524
RA_OF_ASC_NODE = 121.7597
ARG_OF_PERICENTER = 58.5975
MEAN_ANOMALY   = 4.2710

EPHEMERIS_TYPE = 0
CLASSIFICATION_TYPE = U
NORAD_CAT_ID   = 66241
ELEMENT_SET_NO = 999
REV_AT_EPOCH   = 294
BSTAR          = -.69870436E-2
MEAN_MOTION_DOT = -.1232836E-1
MEAN_MOTION_DDOT = 0

CCSDS_OMM_VERS = 2.0
CREATION_DATE  = 
ORIGINATOR     = 

OBJECT_NAME    = STARLINK-35480
OBJECT_ID      = 2025-245J
CENTER_NAME    = EARTH
REF_FRAME      = TEME
TIME_SYSTEM    = UTC
MEAN_ELEMENT_THEORY = SGP/SGP4

EPOCH          = 2025-11-10T22:00:00.999936
MEAN_MOTION    = 15.80952001
ECCENTRICITY   = .00011366
INCLINATION    = 53.1525
RA_OF_ASC_NODE = 121.7446
ARG_OF_PERICENTER = 54.7268
MEAN_ANOMALY   = 15.7592

EPHEMERIS_TYPE = 0
CLASSIFICATION_TYPE = U
NORAD_CAT_ID   = 66242
ELEMENT_SET_NO = 999
REV_AT_EPOCH   = 299
BSTAR          = -.74352204E-2
MEAN_MOTION_DOT = -.1296601E-1
MEAN_MOTION_DDOT = 0

CCSDS_OMM_VERS = 2.0
CREATION_DATE  = 
ORIGINATOR     = 

OBJECT_NAME    = STARLINK-35495
OBJECT_ID      = 2025-245K
CENTER_NAME    = EARTH
REF_FRAME      = TEME
TIME_SYSTEM    = UTC
MEAN_ELEMENT_THEORY = SGP/SGP4

EPOCH          = 2025-11-10T22:00:00.999936
MEAN_MOTION    = 15.81022851
ECCENTRICITY   = .00008951
INCLINATION    = 53.1525
RA_OF_ASC_NODE = 121.7549
ARG_OF_PERICENTER = 56.1740
MEAN_ANOMALY   = 9.3684

EPHEMERIS_TYPE = 0
CLASSIFICATION_TYPE = U
NORAD_CAT_ID   = 66243
ELEMENT_SET_NO = 999
REV_AT_EPOCH   = 299
BSTAR          = -.72124516E-2
MEAN_MOTION_DOT = -.1265897E-1
MEAN_MOTION_DDOT = 0

CCSDS_OMM_VERS = 2.0
CREATION_DATE  = 
ORIGINATOR     = 

OBJECT_NAME    = STARLINK-35517
OBJECT_ID      = 2025-245L
CENTER_NAME    = EARTH
REF_FRAME      = TEME
TIME_SYSTEM    = UTC
MEAN_ELEMENT_THEORY = SGP/SGP4

EPOCH          = 2025-11-10T22:00:00.999936
MEAN_MOTION    = 15.81013238
ECCENTRICITY   = .00008521
INCLINATION    = 53.1522
RA_OF_ASC_NODE = 121.7492
ARG_OF_PERICENTER = 59.4381
MEAN_ANOMALY   = 8.3477

EPHEMERIS_TYPE = 0
CLASSIFICATION_TYPE = U
NORAD_CAT_ID   = 66244
ELEMENT_SET_NO = 999
REV_AT_EPOCH   = 278
BSTAR          = -.73507759E-2
MEAN_MOTION_DOT = -.1286716E-1
MEAN_MOTION_DDOT = 0

CCSDS_OMM_VERS = 2.0
CREATION_DATE  = 
ORIGINATOR     = 

OBJECT_NAME    = STARLINK-35503
OBJECT_ID      = 2025-245M
CENTER_NAME    = EARTH
REF_FRAME      = TEME
TIME_SYSTEM    = UTC
MEAN_ELEMENT_THEORY = SGP/SGP4

EPOCH          = 2025-11-10T22:00:00.999936
MEAN_MOTION    = 15.80927662
ECCENTRICITY   = .00010061
INCLINATION    = 53.1522
RA_OF_ASC_NODE = 121.7387
ARG_OF_PERICENTER = 44.5538
MEAN_ANOMALY   = 28.1970

EPHEMERIS_TYPE = 0
CLASSIFICATION_TYPE = U
NORAD_CAT_ID   = 66245
ELEMENT_SET_NO = 999
REV_AT_EPOCH   = 294
BSTAR          = -.74916483E-2
MEAN_MOTION_DOT = -.1303855E-1
MEAN_MOTION_DDOT = 0

CCSDS_OMM_VERS = 2.0
CREATION_DATE  = 
ORIGINATOR     = 

OBJECT_NAME    = STARLINK-35434
OBJECT_ID      = 2025-245N
CENTER_NAME    = EARTH
REF_FRAME      = TEME
TIME_SYSTEM    = UTC
MEAN_ELEMENT_THEORY = SGP/SGP4

EPOCH          = 2025-11-10T22:00:00.999936
MEAN_MOTION    = 15.80902523
ECCENTRICITY   = .00009378
INCLINATION    = 53.1522
RA_OF_ASC_NODE = 121.7339
ARG_OF_PERICENTER = 52.3862
MEAN_ANOMALY   = 22.6565

EPHEMERIS_TYPE = 0
CLASSIFICATION_TYPE = U
NORAD_CAT_ID   = 66246
ELEMENT_SET_NO = 999
REV_AT_EPOCH   = 278
BSTAR          = -.75521676E-2
MEAN_MOTION_DOT = -.1311695E-1
MEAN_MOTION_DDOT = 0

CCSDS_OMM_VERS = 2.0
CREATION_DATE  = 
ORIGINATOR     = 

OBJECT_NAME    = STARLINK-35481
OBJECT_ID      = 2025-245P
CENTER_NAME    = EARTH
REF_FRAME      = TEME
TIME_SYSTEM    = UTC
MEAN_ELEMENT_THEORY = SGP/SGP4

EPOCH          = 2025-11-10T22:00:00.999936
MEAN_MOTION    = 15.80835070
ECCENTRICITY   = .00009493
INCLINATION    = 53.1521
RA_OF_ASC_NODE = 121.7284
ARG_OF_PERICENTER = 62.6897
MEAN_ANOMALY   = 15.0415

EPHEMERIS_TYPE = 0
CLASSIFICATION_TYPE = U
NORAD_CAT_ID   = 66247
ELEMENT_SET_NO = 999
REV_AT_EPOCH   = 299
BSTAR          = -.76308554E-2
MEAN_MOTION_DOT = -.1320019E-1
MEAN_MOTION_DDOT = 0

